{"type": "FeatureCollection", "features": [ {"type": "Feature", "properties": {"norad_id": 33825, "name": "COSMOS 2251 DEB", "group": "cosmos-2251-debris", "lat": 37.447185321339674, "lon": 12.385591152148875, "alt_km": 643.2116161556796, "timestamp": "2025-12-27T04:40:45.897671+00:00", "meta": {"OBJECT_NAME": "COSMOS 2251 DEB", "OBJECT_ID": "1993-036BS", "EPOCH": "2025-12-26T17:52:13.561824", "MEAN_MOTION": 14.69910979, "ECCENTRICITY": 0.0085128, "INCLINATION": 73.9853, "RA_OF_ASC_NODE": 0.554, "ARG_OF_PERICENTER": 324.3987, "MEAN_ANOMALY": 211.728, "EPHEMERIS_TYPE": 0, "CLASSIFICATION_TYPE": "U", "NORAD_CAT_ID": 33825, "ELEMENT_SET_NO": 999, "REV_AT_EPOCH": 89085, "BSTAR": 0.0012085683, "MEAN_MOTION_DOT": 7.622e-05, "MEAN_MOTION_DDOT": 0}, "tle": {"line1": "1 33825U 93036BS  25360.74460141  .00007622  00000+0  12086-2 0  9990", "line2": "2 33825  73.9853   0.5540 0085128 324.3987 211.7280 14.69910979890858"}}, "geometry": {"type": "Point", "coordinates": [12.385591152148875, 37.447185321339674]}}, {"type": "Feature", "properties": {"norad_id": 33826, "name": "COSMOS 2251 DEB", "group": "cosmos-2251-debris", "lat": 63.30648083648177, "lon": 57.32774620407569, "alt_km": 655.0580320921808, "timestamp": "2025-12-27T04:40:45.897681+00:00", "meta": {"OBJECT_NAME": "COSMOS 2251 DEB", "OBJECT_ID": "1993-036BT", "EPOCH": "2025-12-26T10:43:14.236320", "MEAN_MOTION": 14.51778923, "ECCENTRICITY": 0.0082523, "INCLINATION": 74.0641, "RA_OF_ASC_NODE": 24.1054, "ARG_OF_PERICENTER": 63.8003, "MEAN_ANOMALY": 55.2102, "EPHEMERIS_TYPE": 0, "CLASSIFICATION_TYPE": "U", "NORAD_CAT_ID": 33826, "ELEMENT_SET_NO": 999, "REV_AT_EPOCH": 87968, "BSTAR": 0.00046965, "MEAN_MOTION_DOT": 1.945e-05, "MEAN_MOTION_DDOT": 0}, "tle": {"line1": "1 33826U 93036BT  25360.44669255  .00001945  00000+0  46965-3 0  9991", "line2": "2 33826  74.0641  24.1054 0082523  63.8003  55.2102 14.51778923879682"}}, "geometry": {"type": "Point", "coordinates": [57.32774620407569, 63.30648083648177]}}, {"type": "Feature", "properties": {"norad_id": 33828, "name": "COSMOS 2251 DEB", "group": "cosmos-2251-debris", "lat": -56.181975644098706, "lon": -174.071395960264, "alt_km": 730.839018187392, "timestamp": "2025-12-27T04:40:45.897692+00:00", "meta": {"OBJECT_NAME": "COSMOS 2251 DEB", "OBJECT_ID": "1993-036BV", "EPOCH": "2025-12-26T14:05:42.199872", "MEAN_MOTION": 14.44371496, "ECCENTRICITY": 0.0029517, "INCLINATION": 74.0447, "RA_OF_ASC_NODE": 212.3396, "ARG_OF_PERICENTER": 283.1452, "MEAN_ANOMALY": 98.5213, "EPHEMERIS_TYPE": 0, "CLASSIFICATION_TYPE": "U", "NORAD_CAT_ID": 33828, "ELEMENT_SET_NO": 999, "REV_AT_EPOCH": 88513, "BSTAR": 0.0004039, "MEAN_MOTION_DOT": 1.372e-05, "MEAN_MOTION_DDOT": 0}, "tle": {"line1": "1 33828U 93036BV  25360.58729398  .00001372  00000+0  40390-3 0  9993", "line2": "2 33828  74.0447 212.3396 0029517 283.1452  98.5213 14.44371496885133"}}, "geometry": {"type": "Point", "coordinates": [-174.071395960264, -56.181975644098706]}}, {"type": "Feature", "properties": {"norad_id": 33830, "name": "COSMOS 2251 DEB", "group": "cosmos-2251-debris", "lat": 65.74656303406711, "lon": -118.51524119363613, "alt_km": 643.2199468977205, "timestamp": "2025-12-27T04:40:45.897702+00:00", "meta": {"OBJECT_NAME": "COSMOS 2251 DEB", "OBJECT_ID": "1993-036BX", "EPOCH": "2025-12-27T00:09:39.478752", "MEAN_MOTION": 14.77048237, "ECCENTRICITY": 0.004282, "INCLINATION": 74.031, "RA_OF_ASC_NODE": 202.3911, "ARG_OF_PERICENTER": 319.5724, "MEAN_ANOMALY": 190.8392, "EPHEMERIS_TYPE": 0, "CLASSIFICATION_TYPE": "U", "NORAD_CAT_ID": 33830, "ELEMENT_SET_NO": 999, "REV_AT_EPOCH": 89682, "BSTAR": 0.0008805183, "MEAN_MOTION_DOT": 6.279e-05, "MEAN_MOTION_DDOT": 0}, "tle": {"line1": "1 33830U 93036BX  25361.00670693  .00006279  00000+0  88052-3 0  9995", "line2": "2 33830  74.0310 202.3911 0042820 319.5724 190.8392 14.77048237896827"}}, "geometry": {"type": "Point", "coordinates": [-118.51524119363613, 65.74656303406711]}}, {"type": "Feature", "properties": {"norad_id": 33832, "name": "COSMOS 2251 DEB", "group": "cosmos-2251-debris", "lat": -3.1415531809673745, "lon": -178.50887941478786, "alt_km": 707.5900567444905, "timestamp": "2025-12-27T04:40:45.897713+00:00", "meta": {"OBJECT_NAME": "COSMOS 2251 DEB", "OBJECT_ID": "1993-036BZ", "EPOCH": "2025-12-26T22:48:26.161056", "MEAN_MOTION": 14.60820943, "ECCENTRICITY": 0.00239324, "INCLINATION": 74.0535, "RA_OF_ASC_NODE": 182.8571, "ARG_OF_PERICENTER": 211.239, "MEAN_ANOMALY": 299.2619, "EPHEMERIS_TYPE": 0, "CLASSIFICATION_TYPE": "U", "NORAD_CAT_ID": 33832, "ELEMENT_SET_NO": 999, "REV_AT_EPOCH": 88632, "BSTAR": 0.0017853359, "MEAN_MOTION_DOT": 8.74e-05, "MEAN_MOTION_DDOT": 0}, "tle": {"line1": "1 33832U 93036BZ  25360.95030279  .00008740  00000+0  17853-2 0  9995", "line2": "2 33832  74.0535 182.8571 0023932 211.2390 299.2619 14.60820943886326"}}, "geometry": {"type": "Point", "coordinates": [-178.50887941478786, -3.1415531809673745]}}, {"type": "Feature", "properties": {"norad_id": 33835, "name": "COSMOS 2251 DEB", "group": "cosmos-2251-debris", "lat": -73.34494762585028, "lon": 0.6120452403164952, "alt_km": 725.8865913747641, "timestamp": "2025-12-27T04:40:45.897725+00:00", "meta": {"OBJECT_NAME": "COSMOS 2251 DEB", "OBJECT_ID": "1993-036CC", "EPOCH": "2025-12-26T23:18:54.400608", "MEAN_MOTION": 14.62385082, "ECCENTRICITY": 0.00536082, "INCLINATION": 74.0573, "RA_OF_ASC_NODE": 73.8862, "ARG_OF_PERICENTER": 123.1581, "MEAN_ANOMALY": 55.1969, "EPHEMERIS_TYPE": 0, "CLASSIFICATION_TYPE": "U", "NORAD_CAT_ID": 33835, "ELEMENT_SET_NO": 999, "REV_AT_EPOCH": 88997, "BSTAR": 0.0010185464, "MEAN_MOTION_DOT": 5.231e-05, "MEAN_MOTION_DDOT": 0}, "tle": {"line1": "1 33835U 93036CC  25360.97146297  .00005231  00000+0  10185-2 0  9991", "line2": "2 33835  74.0573  73.8862 0053608 123.1581  55.1969 14.62385082889972"}}, "geometry": {"type": "Point", "coordinates": [0.6120452403164952, -73.34494762585028]}}, {"type": "Feature", "properties": {"norad_id": 33836, "name": "COSMOS 2251 DEB", "group": "cosmos-2251-debris", "lat": 52.461940963783945, "lon": 28.48961380429094, "alt_km": 613.3717095409102, "timestamp": "2025-12-27T04:40:45.897735+00:00", "meta": {"OBJECT_NAME": "COSMOS 2251 DEB", "OBJECT_ID": "1993-036CD", "EPOCH": "2025-12-26T15:16:49.328256", "MEAN_MOTION": 14.79849474, "ECCENTRICITY": 0.002294, "INCLINATION": 73.9962, "RA_OF_ASC_NODE": 231.5244, "ARG_OF_PERICENTER": 79.4405, "MEAN_ANOMALY": 311.6709, "EPHEMERIS_TYPE": 0, "CLASSIFICATION_TYPE": "U", "NORAD_CAT_ID": 33836, "ELEMENT_SET_NO": 999, "REV_AT_EPOCH": 64294, "BSTAR": 0.0010826, "MEAN_MOTION_DOT": 8.173e-05, "MEAN_MOTION_DDOT": 0}, "tle": {"line1": "1 33836U 93036CD  25360.63668204  .00008173  00000+0  10826-2 0  9992", "line2": "2 33836  73.9962 231.5244 0022940  79.4405 311.6709 14.79849474642947"}}, "geometry": {"type": "Point", "coordinates": [28.48961380429094, 52.461940963783945]}}, {"type": "Feature", "properties": {"norad_id": 33837, "name": "COSMOS 2251 DEB", "group": "cosmos-2251-debris", "lat": 32.784403843774555, "lon": 39.02387153649032, "alt_km": 742.1716930456978, "timestamp": "2025-12-27T04:40:45.897745+00:00", "meta": {"OBJECT_NAME": "COSMOS 2251 DEB", "OBJECT_ID": "1993-036CE", "EPOCH": "2025-12-26T11:58:15.849120", "MEAN_MOTION": 14.50729517, "ECCENTRICITY": 0.0035863, "INCLINATION": 74.0121, "RA_OF_ASC_NODE": 29.6929, "ARG_OF_PERICENTER": 249.2411, "MEAN_ANOMALY": 110.4906, "EPHEMERIS_TYPE": 0, "CLASSIFICATION_TYPE": "U", "NORAD_CAT_ID": 33837, "ELEMENT_SET_NO": 999, "REV_AT_EPOCH": 88995, "BSTAR": 0.00025962, "MEAN_MOTION_DOT": 1.001e-05, "MEAN_MOTION_DDOT": 0}, "tle": {"line1": "1 33837U 93036CE  25360.49879455  .00001001  00000+0  25962-3 0  9990", "line2": "2 33837  74.0121  29.6929 0035863 249.2411 110.4906 14.50729517889957"}}, "geometry": {"type": "Point", "coordinates": [39.02387153649032, 32.784403843774555]}}, {"type": "Feature", "properties": {"norad_id": 33838, "name": "COSMOS 2251 DEB", "group": "cosmos-2251-debris", "lat": 33.31807140717407, "lon": -68.10216060897224, "alt_km": 730.956441655022, "timestamp": "2025-12-27T04:40:45.897755+00:00", "meta": {"OBJECT_NAME": "COSMOS 2251 DEB", "OBJECT_ID": "1993-036CF", "EPOCH": "2025-12-26T18:37:13.289664", "MEAN_MOTION": 14.48406829, "ECCENTRICITY": 0.00274583, "INCLINATION": 74.0369, "RA_OF_ASC_NODE": 123.5274, "ARG_OF_PERICENTER": 243.5281, "MEAN_ANOMALY": 237.2969, "EPHEMERIS_TYPE": 0, "CLASSIFICATION_TYPE": "U", "NORAD_CAT_ID": 33838, "ELEMENT_SET_NO": 999, "REV_AT_EPOCH": 88772, "BSTAR": 0.00047358699, "MEAN_MOTION_DOT": 1.755e-05, "MEAN_MOTION_DDOT": 0}, "tle": {"line1": "1 33838U 93036CF  25360.77584826  .00001755  00000+0  47359-3 0  9997", "line2": "2 33838  74.0369 123.5274 0027458 243.5281 237.2969 14.48406829887727"}}, "geometry": {"type": "Point", "coordinates": [-68.10216060897224, 33.31807140717407]}}, {"type": "Feature", "properties": {"norad_id": 33839, "name": "COSMOS 2251 DEB", "group": "cosmos-2251-debris", "lat": -5.379151629868652, "lon": 0.2477024225198504, "alt_km": 694.1930213146343, "timestamp": "2025-12-27T04:40:45.897765+00:00", "meta": {"OBJECT_NAME": "COSMOS 2251 DEB", "OBJECT_ID": "1993-036CG", "EPOCH": "2025-12-26T23:38:09.433824", "MEAN_MOTION": 14.64456579, "ECCENTRICITY": 0.00853786, "INCLINATION": 74.0373, "RA_OF_ASC_NODE": 179.107, "ARG_OF_PERICENTER": 287.9543, "MEAN_ANOMALY": 231.0499, "EPHEMERIS_TYPE": 0, "CLASSIFICATION_TYPE": "U", "NORAD_CAT_ID": 33839, "ELEMENT_SET_NO": 999, "REV_AT_EPOCH": 89788, "BSTAR": 0.00028305526, "MEAN_MOTION_DOT": 1.546e-05, "MEAN_MOTION_DDOT": 0}, "tle": {"line1": "1 33839U 93036CG  25360.98483141  .00001546  00000+0  28306-3 0  9998", "line2": "2 33839  74.0373 179.1070 0085378 287.9543 231.0499 14.64456579897885"}}, "geometry": {"type": "Point", "coordinates": [0.2477024225198504, -5.379151629868652]}}]}